{
  "type": "FeatureCollection",
  "features": [
    {
      "type": "Feature",
      "properties": {
        "norad_id": 28890,
        "name": "BEIJING 1",
        "group": "dmc",
        "lat": -80.37834915661402,
        "lon": -125.11795831364395,
        "alt_km": 695.523888000409,
        "timestamp": "2025-12-12T09:49:08.394513+00:00",
        "meta_object_name": "BEIJING 1",
        "meta_object_id": "2005-043A",
        "meta_epoch": "2025-12-12T05:19:49.484064",
        "meta_mean_motion": 14.63366059,
        "meta_eccentricity": 0.0015261,
        "meta_inclination": 98.2653,
        "meta_ra_of_asc_node": 113.7274,
        "meta_arg_of_pericenter": 142.6372,
        "meta_mean_anomaly": 217.5894,
        "meta_ephemeris_type": 0,
        "meta_classification_type": "U",
        "meta_norad_cat_id": 28890,
        "meta_element_set_no": 999,
        "meta_rev_at_epoch": 7330,
        "meta_bstar": 0.00017294,
        "meta_mean_motion_dot": 8.46e-06,
        "meta_mean_motion_ddot": 0,
        "tle_line1": "1 28890U 05043A   25346.22210051  .00000846  00000+0  17294-3 0  9995",
        "tle_line2": "2 28890  98.2653 113.7274 0015261 142.6372 217.5894 14.63366059 73309"
      },
      "geometry": {
        "type": "Point",
        "coordinates": [
          -125.11795831364395,
          -80.37834915661402
        ]
      }
    },
    {
      "type": "Feature",
      "properties": {
        "norad_id": 33320,
        "name": "HUANJING 1A (HJ-1A)",
        "group": "dmc",
        "lat": -82.15990232419222,
        "lon": 77.11458689791615,
        "alt_km": 634.5261074975078,
        "timestamp": "2025-12-12T09:49:08.394536+00:00",
        "meta_object_name": "HUANJING 1A (HJ-1A)",
        "meta_object_id": "2008-041A",
        "meta_epoch": "2025-12-12T05:22:29.621280",
        "meta_mean_motion": 14.83393215,
        "meta_eccentricity": 0.0020197,
        "meta_inclination": 97.6545,
        "meta_ra_of_asc_node": 334.5442,
        "meta_arg_of_pericenter": 36.1436,
        "meta_mean_anomaly": 324.1139,
        "meta_ephemeris_type": 0,
        "meta_classification_type": "U",
        "meta_norad_cat_id": 33320,
        "meta_element_set_no": 999,
        "meta_rev_at_epoch": 93068,
        "meta_bstar": 0.00032171,
        "meta_mean_motion_dot": 2.597e-05,
        "meta_mean_motion_ddot": 0,
        "tle_line1": "1 33320U 08041A   25346.22395395  .00002597  00000+0  32171-3 0  9991",
        "tle_line2": "2 33320  97.6545 334.5442 0020197  36.1436 324.1139 14.83393215930684"
      },
      "geometry": {
        "type": "Point",
        "coordinates": [
          77.11458689791615,
          -82.15990232419222
        ]
      }
    },
    {
      "type": "Feature",
      "properties": {
        "norad_id": 33321,
        "name": "HUANJING 1B (HJ-1B)",
        "group": "dmc",
        "lat": 48.702829038403166,
        "lon": 167.20912981563163,
        "alt_km": 600.2752485611563,
        "timestamp": "2025-12-12T09:49:08.394551+00:00",
        "meta_object_name": "HUANJING 1B (HJ-1B)",
        "meta_object_id": "2008-041B",
        "meta_epoch": "2025-12-12T05:59:46.664160",
        "meta_mean_motion": 14.82820234,
        "meta_eccentricity": 0.0038186,
        "meta_inclination": 97.6403,
        "meta_ra_of_asc_node": 338.267,
        "meta_arg_of_pericenter": 77.2093,
        "meta_mean_anomaly": 283.3384,
        "meta_ephemeris_type": 0,
        "meta_classification_type": "U",
        "meta_norad_cat_id": 33321,
        "meta_element_set_no": 999,
        "meta_rev_at_epoch": 93070,
        "meta_bstar": 0.00033419,
        "meta_mean_motion_dot": 2.687e-05,
        "meta_mean_motion_ddot": 0,
        "tle_line1": "1 33321U 08041B   25346.24984565  .00002687  00000+0  33419-3 0  9993",
        "tle_line2": "2 33321  97.6403 338.2670 0038186  77.2093 283.3384 14.82820234930700"
      },
      "geometry": {
        "type": "Point",
        "coordinates": [
          167.20912981563163,
          48.702829038403166
        ]
      }
    },
    {
      "type": "Feature",
      "properties": {
        "norad_id": 33446,
        "name": "YAOGAN-4",
        "group": "dmc",
        "lat": 41.638454975955206,
        "lon": -90.59589959636867,
        "alt_km": 615.4690216809886,
        "timestamp": "2025-12-12T09:49:08.394564+00:00",
        "meta_object_name": "YAOGAN-4",
        "meta_object_id": "2008-061A",
        "meta_epoch": "2025-12-11T19:03:10.073376",
        "meta_mean_motion": 14.82677773,
        "meta_eccentricity": 0.00136364,
        "meta_inclination": 97.9179,
        "meta_ra_of_asc_node": 275.9025,
        "meta_arg_of_pericenter": 326.6885,
        "meta_mean_anomaly": 33.3469,
        "meta_ephemeris_type": 0,
        "meta_classification_type": "U",
        "meta_norad_cat_id": 33446,
        "meta_element_set_no": 999,
        "meta_rev_at_epoch": 91789,
        "meta_bstar": 0.00029431307,
        "meta_mean_motion_dot": 2.323e-05,
        "meta_mean_motion_ddot": 0,
        "tle_line1": "1 33446U 08061A   25345.79386659  .00002323  00000+0  29431-3 0  9998",
        "tle_line2": "2 33446  97.9179 275.9025 0013636 326.6885  33.3469 14.82677773917895"
      },
      "geometry": {
        "type": "Point",
        "coordinates": [
          -90.59589959636867,
          41.638454975955206
        ]
      }
    },
    {
      "type": "Feature",
      "properties": {
        "norad_id": 35681,
        "name": "DEIMOS-1",
        "group": "dmc",
        "lat": -1.222023449540302,
        "lon": -33.138116292343376,
        "alt_km": 648.8579306186111,
        "timestamp": "2025-12-12T09:49:08.394575+00:00",
        "meta_object_name": "DEIMOS-1",
        "meta_object_id": "2009-041A",
        "meta_epoch": "2025-12-12T04:06:58.405248",
        "meta_mean_motion": 14.74952034,
        "meta_eccentricity": 0.0002726,
        "meta_inclination": 97.7151,
        "meta_ra_of_asc_node": 146.8011,
        "meta_arg_of_pericenter": 80.473,
        "meta_mean_anomaly": 279.6787,
        "meta_ephemeris_type": 0,
        "meta_classification_type": "U",
        "meta_norad_cat_id": 35681,
        "meta_element_set_no": 999,
        "meta_rev_at_epoch": 87931,
        "meta_bstar": 0.00020417,
        "meta_mean_motion_dot": 1.324e-05,
        "meta_mean_motion_ddot": 0,
        "tle_line1": "1 35681U 09041A   25346.17150932  .00001324  00000+0  20417-3 0  9991",
        "tle_line2": "2 35681  97.7151 146.8011 0002726  80.4730 279.6787 14.74952034879318"
      },
      "geometry": {
        "type": "Point",
        "coordinates": [
          -33.138116292343376,
          -1.222023449540302
        ]
      }
    },
    {
      "type": "Feature",
      "properties": {
        "norad_id": 35683,
        "name": "UK-DMC 2",
        "group": "dmc",
        "lat": -15.33467421947311,
        "lon": -60.849158930670235,
        "alt_km": 648.1332072137948,
        "timestamp": "2025-12-12T09:49:08.394586+00:00",
        "meta_object_name": "UK-DMC 2",
        "meta_object_id": "2009-041C",
        "meta_epoch": "2025-12-12T04:03:15.343776",
        "meta_mean_motion": 14.75620359,
        "meta_eccentricity": 0.0001462,
        "meta_inclination": 97.8562,
        "meta_ra_of_asc_node": 121.0874,
        "meta_arg_of_pericenter": 96.2288,
        "meta_mean_anomaly": 263.9088,
        "meta_ephemeris_type": 0,
        "meta_classification_type": "U",
        "meta_norad_cat_id": 35683,
        "meta_element_set_no": 999,
        "meta_rev_at_epoch": 87898,
        "meta_bstar": 0.00025895,
        "meta_mean_motion_dot": 1.718e-05,
        "meta_mean_motion_ddot": 0,
        "tle_line1": "1 35683U 09041C   25346.16892759  .00001718  00000+0  25895-3 0  9994",
        "tle_line2": "2 35683  97.8562 121.0874 0001462  96.2288 263.9088 14.75620359878983"
      },
      "geometry": {
        "type": "Point",
        "coordinates": [
          -60.849158930670235,
          -15.33467421947311
        ]
      }
    },
    {
      "type": "Feature",
      "properties": {
        "norad_id": 40715,
        "name": "DMC3-FM1",
        "group": "dmc",
        "lat": -52.013491746864545,
        "lon": 23.67746374498413,
        "alt_km": 619.2280795549832,
        "timestamp": "2025-12-12T09:49:08.394597+00:00",
        "meta_object_name": "DMC3-FM1",
        "meta_object_id": "2015-032A",
        "meta_epoch": "2025-12-12T05:32:28.442400",
        "meta_mean_motion": 14.85438097,
        "meta_eccentricity": 0.0004739,
        "meta_inclination": 97.669,
        "meta_ra_of_asc_node": 213.4419,
        "meta_arg_of_pericenter": 323.8597,
        "meta_mean_anomaly": 36.2298,
        "meta_ephemeris_type": 0,
        "meta_classification_type": "U",
        "meta_norad_cat_id": 40715,
        "meta_element_set_no": 999,
        "meta_rev_at_epoch": 56215,
        "meta_bstar": 0.00011807,
        "meta_mean_motion_dot": 9.66e-06,
        "meta_mean_motion_ddot": 0,
        "tle_line1": "1 40715U 15032A   25346.23088475  .00000966  00000+0  11807-3 0  9995",
        "tle_line2": "2 40715  97.6690 213.4419 0004739 323.8597  36.2298 14.85438097562158"
      },
      "geometry": {
        "type": "Point",
        "coordinates": [
          23.67746374498413,
          -52.013491746864545
        ]
      }
    },
    {
      "type": "Feature",
      "properties": {
        "norad_id": 40716,
        "name": "DMC3-FM2",
        "group": "dmc",
        "lat": 66.28936355085547,
        "lon": 52.93729039150489,
        "alt_km": 608.8306851681664,
        "timestamp": "2025-12-12T09:49:08.394607+00:00",
        "meta_object_name": "DMC3-FM2",
        "meta_object_id": "2015-032B",
        "meta_epoch": "2025-12-12T04:27:52.185024",
        "meta_mean_motion": 14.85439986,
        "meta_eccentricity": 0.0005364,
        "meta_inclination": 97.6745,
        "meta_ra_of_asc_node": 214.8421,
        "meta_arg_of_pericenter": 328.0037,
        "meta_mean_anomaly": 32.0852,
        "meta_ephemeris_type": 0,
        "meta_classification_type": "U",
        "meta_norad_cat_id": 40716,
        "meta_element_set_no": 999,
        "meta_rev_at_epoch": 56214,
        "meta_bstar": 0.0001773,
        "meta_mean_motion_dot": 1.477e-05,
        "meta_mean_motion_ddot": 0,
        "tle_line1": "1 40716U 15032B   25346.18602066  .00001477  00000+0  17730-3 0  9997",
        "tle_line2": "2 40716  97.6745 214.8421 0005364 328.0037  32.0852 14.85439986562146"
      },
      "geometry": {
        "type": "Point",
        "coordinates": [
          52.93729039150489,
          66.28936355085547
        ]
      }
    },
    {
      "type": "Feature",
      "properties": {
        "norad_id": 40717,
        "name": "DMC3-FM3",
        "group": "dmc",
        "lat": -3.1840934453779854,
        "lon": -142.88003132627207,
        "alt_km": 612.7615249641403,
        "timestamp": "2025-12-12T09:49:08.394617+00:00",
        "meta_object_name": "DMC3-FM3",
        "meta_object_id": "2015-032C",
        "meta_epoch": "2025-12-12T04:59:00.076128",
        "meta_mean_motion": 14.85431202,
        "meta_eccentricity": 0.0004658,
        "meta_inclination": 97.6801,
        "meta_ra_of_asc_node": 216.4955,
        "meta_arg_of_pericenter": 330.8856,
        "meta_mean_anomaly": 29.2099,
        "meta_ephemeris_type": 0,
        "meta_classification_type": "U",
        "meta_norad_cat_id": 40717,
        "meta_element_set_no": 999,
        "meta_rev_at_epoch": 56215,
        "meta_bstar": 0.00020529,
        "meta_mean_motion_dot": 1.718e-05,
        "meta_mean_motion_ddot": 0,
        "tle_line1": "1 40717U 15032C   25346.20763977  .00001718  00000+0  20529-3 0  9998",
        "tle_line2": "2 40717  97.6801 216.4955 0004658 330.8856  29.2099 14.85431202562150"
      },
      "geometry": {
        "type": "Point",
        "coordinates": [
          -142.88003132627207,
          -3.1840934453779854
        ]
      }
    }
  ]
}